{
  "type": "FeatureCollection",
  "features": [
    {
      "type": "Feature",
      "properties": {
        "norad_id": 32275,
        "name": "COSMOS 2433 (720)",
        "group": "glo-ops",
        "lat": NaN,
        "lon": NaN,
        "alt_km": NaN,
        "timestamp": "2025-12-01T03:08:34.176133+00:00",
        "meta": {
          "OBJECT_NAME": "COSMOS 2433 (720)",
          "OBJECT_ID": "2007-052A",
          "EPOCH": "2025-11-29T22:48:15.126048",
          "MEAN_MOTION": 2.13103951,
          "ECCENTRICITY": 0.00056232,
          "INCLINATION": 65.6901,
          "RA_OF_ASC_NODE": 322.6356,
          "ARG_OF_PERICENTER": 251.628,
          "MEAN_ANOMALY": 108.3293,
          "EPHEMERIS_TYPE": 0,
          "CLASSIFICATION_TYPE": "U",
          "NORAD_CAT_ID": 32275,
          "ELEMENT_SET_NO": 999,
          "REV_AT_EPOCH": 14081,
          "BSTAR": 0,
          "MEAN_MOTION_DOT": -1.8e-07,
          "MEAN_MOTION_DDOT": 0
        }
      },
      "geometry": {
        "type": "Point",
        "coordinates": [
          NaN,
          NaN
        ]
      }
    },
    {
      "type": "Feature",
      "properties": {
        "norad_id": 32276,
        "name": "COSMOS 2432 (719)",
        "group": "glo-ops",
        "lat": NaN,
        "lon": NaN,
        "alt_km": NaN,
        "timestamp": "2025-12-01T03:08:34.176150+00:00",
        "meta": {
          "OBJECT_NAME": "COSMOS 2432 (719)",
          "OBJECT_ID": "2007-052B",
          "EPOCH": "2025-11-30T02:17:25.628064",
          "MEAN_MOTION": 2.13103086,
          "ECCENTRICITY": 0.00112175,
          "INCLINATION": 65.7059,
          "RA_OF_ASC_NODE": 322.7547,
          "ARG_OF_PERICENTER": 310.9925,
          "MEAN_ANOMALY": 104.908,
          "EPHEMERIS_TYPE": 0,
          "CLASSIFICATION_TYPE": "U",
          "NORAD_CAT_ID": 32276,
          "ELEMENT_SET_NO": 999,
          "REV_AT_EPOCH": 14084,
          "BSTAR": 0,
          "MEAN_MOTION_DOT": -1.8e-07,
          "MEAN_MOTION_DDOT": 0
        }
      },
      "geometry": {
        "type": "Point",
        "coordinates": [
          NaN,
          NaN
        ]
      }
    },
    {
      "type": "Feature",
      "properties": {
        "norad_id": 32393,
        "name": "COSMOS 2434 (721)",
        "group": "glo-ops",
        "lat": NaN,
        "lon": NaN,
        "alt_km": NaN,
        "timestamp": "2025-12-01T03:08:34.176160+00:00",
        "meta": {
          "OBJECT_NAME": "COSMOS 2434 (721)",
          "OBJECT_ID": "2007-065A",
          "EPOCH": "2025-11-30T19:06:40.237056",
          "MEAN_MOTION": 2.13101185,
          "ECCENTRICITY": 0.0004324,
          "INCLINATION": 64.3147,
          "RA_OF_ASC_NODE": 198.6065,
          "ARG_OF_PERICENTER": 70.6228,
          "MEAN_ANOMALY": 109.1321,
          "EPHEMERIS_TYPE": 0,
          "CLASSIFICATION_TYPE": "U",
          "NORAD_CAT_ID": 32393,
          "ELEMENT_SET_NO": 999,
          "REV_AT_EPOCH": 13954,
          "BSTAR": 0,
          "MEAN_MOTION_DOT": 9.8e-07,
          "MEAN_MOTION_DDOT": 0
        }
      },
      "geometry": {
        "type": "Point",
        "coordinates": [
          NaN,
          NaN
        ]
      }
    },
    {
      "type": "Feature",
      "properties": {
        "norad_id": 32395,
        "name": "COSMOS 2436 (723)",
        "group": "glo-ops",
        "lat": NaN,
        "lon": NaN,
        "alt_km": NaN,
        "timestamp": "2025-12-01T03:08:34.176167+00:00",
        "meta": {
          "OBJECT_NAME": "COSMOS 2436 (723)",
          "OBJECT_ID": "2007-065C",
          "EPOCH": "2025-11-30T02:03:42.471936",
          "MEAN_MOTION": 2.13099987,
          "ECCENTRICITY": 0.00177044,
          "INCLINATION": 64.3233,
          "RA_OF_ASC_NODE": 198.7006,
          "ARG_OF_PERICENTER": 8.5569,
          "MEAN_ANOMALY": 119.3435,
          "EPHEMERIS_TYPE": 0,
          "CLASSIFICATION_TYPE": "U",
          "NORAD_CAT_ID": 32395,
          "ELEMENT_SET_NO": 999,
          "REV_AT_EPOCH": 13948,
          "BSTAR": 0,
          "MEAN_MOTION_DOT": 9.1e-07,
          "MEAN_MOTION_DDOT": 0
        }
      },
      "geometry": {
        "type": "Point",
        "coordinates": [
          NaN,
          NaN
        ]
      }
    },
    {
      "type": "Feature",
      "properties": {
        "norad_id": 36111,
        "name": "COSMOS 2456 (730)",
        "group": "glo-ops",
        "lat": NaN,
        "lon": NaN,
        "alt_km": NaN,
        "timestamp": "2025-12-01T03:08:34.176186+00:00",
        "meta": {
          "OBJECT_NAME": "COSMOS 2456 (730)",
          "OBJECT_ID": "2009-070A",
          "EPOCH": "2025-11-30T08:50:19.027392",
          "MEAN_MOTION": 2.13103442,
          "ECCENTRICITY": 0.00027211,
          "INCLINATION": 64.8932,
          "RA_OF_ASC_NODE": 77.761,
          "ARG_OF_PERICENTER": 298.5848,
          "MEAN_ANOMALY": 69.8128,
          "EPHEMERIS_TYPE": 0,
          "CLASSIFICATION_TYPE": "U",
          "NORAD_CAT_ID": 36111,
          "ELEMENT_SET_NO": 999,
          "REV_AT_EPOCH": 12419,
          "BSTAR": 0,
          "MEAN_MOTION_DOT": -8e-08,
          "MEAN_MOTION_DDOT": 0
        }
      },
      "geometry": {
        "type": "Point",
        "coordinates": [
          NaN,
          NaN
        ]
      }
    },
    {
      "type": "Feature",
      "properties": {
        "norad_id": 36112,
        "name": "COSMOS 2457 (733)",
        "group": "glo-ops",
        "lat": NaN,
        "lon": NaN,
        "alt_km": NaN,
        "timestamp": "2025-12-01T03:08:34.176192+00:00",
        "meta": {
          "OBJECT_NAME": "COSMOS 2457 (733)",
          "OBJECT_ID": "2009-070B",
          "EPOCH": "2025-11-30T17:16:30.504000",
          "MEAN_MOTION": 2.13100809,
          "ECCENTRICITY": 0.000498,
          "INCLINATION": 64.8786,
          "RA_OF_ASC_NODE": 77.5967,
          "ARG_OF_PERICENTER": 155.4262,
          "MEAN_ANOMALY": 251.9047,
          "EPHEMERIS_TYPE": 0,
          "CLASSIFICATION_TYPE": "U",
          "NORAD_CAT_ID": 36112,
          "ELEMENT_SET_NO": 999,
          "REV_AT_EPOCH": 12420,
          "BSTAR": 0,
          "MEAN_MOTION_DOT": -1.2e-07,
          "MEAN_MOTION_DDOT": 0
        }
      },
      "geometry": {
        "type": "Point",
        "coordinates": [
          NaN,
          NaN
        ]
      }
    },
    {
      "type": "Feature",
      "properties": {
        "norad_id": 36402,
        "name": "COSMOS 2460 (732)",
        "group": "glo-ops",
        "lat": NaN,
        "lon": NaN,
        "alt_km": NaN,
        "timestamp": "2025-12-01T03:08:34.176211+00:00",
        "meta": {
          "OBJECT_NAME": "COSMOS 2460 (732)",
          "OBJECT_ID": "2010-007C",
          "EPOCH": "2025-11-30T07:40:32.843712",
          "MEAN_MOTION": 2.13106071,
          "ECCENTRICITY": 0.00028145,
          "INCLINATION": 65.5365,
          "RA_OF_ASC_NODE": 321.1932,
          "ARG_OF_PERICENTER": 269.4313,
          "MEAN_ANOMALY": 190.342,
          "EPHEMERIS_TYPE": 0,
          "CLASSIFICATION_TYPE": "U",
          "NORAD_CAT_ID": 36402,
          "ELEMENT_SET_NO": 999,
          "REV_AT_EPOCH": 12249,
          "BSTAR": 0,
          "MEAN_MOTION_DOT": -2e-07,
          "MEAN_MOTION_DDOT": 0
        }
      },
      "geometry": {
        "type": "Point",
        "coordinates": [
          NaN,
          NaN
        ]
      }
    },
    {
      "type": "Feature",
      "properties": {
        "norad_id": 37867,
        "name": "COSMOS 2476 (744)",
        "group": "glo-ops",
        "lat": NaN,
        "lon": NaN,
        "alt_km": NaN,
        "timestamp": "2025-12-01T03:08:34.176232+00:00",
        "meta": {
          "OBJECT_NAME": "COSMOS 2476 (744)",
          "OBJECT_ID": "2011-064A",
          "EPOCH": "2025-11-30T12:02:47.177088",
          "MEAN_MOTION": 2.13101293,
          "ECCENTRICITY": 0.00238861,
          "INCLINATION": 65.1558,
          "RA_OF_ASC_NODE": 79.5857,
          "ARG_OF_PERICENTER": 233.2678,
          "MEAN_ANOMALY": 146.1082,
          "EPHEMERIS_TYPE": 0,
          "CLASSIFICATION_TYPE": "U",
          "NORAD_CAT_ID": 37867,
          "ELEMENT_SET_NO": 999,
          "REV_AT_EPOCH": 10953,
          "BSTAR": 0,
          "MEAN_MOTION_DOT": -6e-08,
          "MEAN_MOTION_DDOT": 0
        }
      },
      "geometry": {
        "type": "Point",
        "coordinates": [
          NaN,
          NaN
        ]
      }
    }
  ]
}